NORAD_CAT_ID,OBJECT_NAME,OBJECT_TYPE,EPOCH,MEAN_MOTION,ECCENTRICITY,INCLINATION,RA_OF_ASC_NODE,ARG_OF_PERICENTER,MEAN_ANOMALY,BSTAR,MEAN_MOTION_DOT,MEAN_MOTION_DDOT,TLE_LINE0,TLE_LINE1,TLE_LINE2,SEMIMAJOR_AXIS,PERIOD,APOGEE,PERIGEE,DECAYED
52332.0,STARLINK-3831,PAYLOAD,2022-09-13 08:00:01,15.08858363,0.0001902,53.2152,165.4324,48.9791,352.9195,-0.002934,-0.00046705,0.0,0 STARLINK-3831,1 52332U 22045B   22256.33334491 -.00046705  00000-0 -29340-2 0  9999,2 52332  53.2152 165.4324 0001902  48.9791 352.9195 15.08858363 23400,6917.824000000001,95.436,541.005,538.373,0.0
52332.0,STARLINK-3831,PAYLOAD,2022-09-13 14:00:01,15.08803183,0.0001724,53.2152,164.3089,54.6227,265.9883,0.0026337,0.00041834,0.0,0 STARLINK-3831,1 52332U 22045B   22256.58334491  .00041834  00000-0  26337-2 0  9995,2 52332  53.2152 164.3089 0001724  54.6227 265.9883 15.08803183  1308,6917.993,95.44,541.0509999999998,538.665,0.0
52332.0,STARLINK-3831,PAYLOAD,2022-09-13 22:00:00,15.08853606,0.0001784,53.2162,162.8136,56.2651,275.91,-0.0023390999999999,-0.00037337,0.0,0 STARLINK-3831,1 52332U 22045B   22256.91667824 -.00037337  00000-0 -23391-2 0  9993,2 52332  53.2162 162.8136 0001784  56.2651 275.9100 15.08853606  1308,6917.839,95.437,540.938,538.47,0.0
52332.0,STARLINK-3831,PAYLOAD,2022-09-14 14:00:01,15.08835984,0.0001719,53.2145,159.8196,53.6185,301.7503,0.00035841,5.42e-05,0.0,0 STARLINK-3831,1 52332U 22045B   22257.58334491  .00005420  00000-0  35841-3 0  9998,2 52332  53.2145 159.8196 0001719  53.6185 301.7503 15.08835984 23580,6917.893,95.438,540.947,538.568,0.0
52332.0,STARLINK-3831,PAYLOAD,2022-09-14 22:00:00,15.08845147,0.0001797,53.2146,158.3244,51.2814,315.6793,-0.0010222,-0.00016522,0.0,0 STARLINK-3831,1 52332U 22045B   22257.91667824 -.00016522  00000-0 -10222-2 0  9996,2 52332  53.2146 158.3244 0001797  51.2814 315.6793 15.08845147  1301,6917.865,95.437,540.9730000000002,538.487,0.0
52332.0,STARLINK-3831,PAYLOAD,2022-09-15 14:00:01,15.088105800000005,0.0001641999999999,53.2144,155.3301,50.9542,339.2276,0.0034115,0.00054381,0.0,0 STARLINK-3831,1 52332U 22045B   22258.58334491  .00054381  00000-0  34115-2 0  9991,2 52332  53.2144 155.3301 0001642  50.9542 339.2276 15.08810580  1304,6917.97,95.439,540.971,538.6990000000002,0.0
52332.0,STARLINK-3831,PAYLOAD,2022-09-15 16:00:00,15.08820885,0.0001664,53.2145,154.9559,51.9591,71.1144,0.003007,0.00047869,0.0,0 STARLINK-3831,1 52332U 22045B   22258.66667824  .00047869  00000-0  30070-2 0  9998,2 52332  53.2145 154.9559 0001664  51.9591  71.1144 15.08820885  1309,6917.939,95.439,540.955,538.653,0.0
52332.0,STARLINK-3831,PAYLOAD,2022-09-15 23:24:21,15.08841112,0.0001720999999999,53.2177,153.57,52.3807,307.7341,4.9375e-05,4.98e-06,0.0,0 STARLINK-3831,1 52332U 22045B   22258.97525352  .00000498  00000-0  49375-4 0  9998,2 52332  53.2177 153.5700 0001721  52.3807 307.7341 15.08841112 23808,6917.877,95.437,540.933,538.5509999999998,0.0
52332.0,STARLINK-3831,PAYLOAD,2022-09-16 23:15:09,15.08838813,0.0001359,53.2179,149.1103,66.0941,294.0194,-5.655600000000001e-05,-1.188e-05,0.0,0 STARLINK-3831,1 52332U 22045B   22259.96885794 -.00001188  00000-0 -56556-4 0  9995,2 52332  53.2179 149.1103 0001359  66.0941 294.0194 15.08838813 23950,6917.884,95.438,540.689,538.809,0.0
52332.0,STARLINK-3831,PAYLOAD,2022-09-17 19:55:10,15.08836642,0.0001732,53.2171,145.243,52.7813,307.3337,-4.677800000000001e-05,-1.032e-05,0.0,0 STARLINK-3831,1 52332U 22045B   22260.82998099 -.00001032  00000-0 -46778-4 0  9998,2 52332  53.2171 145.2430 0001732  52.7813 307.3337 15.08836642 24087,6917.891,95.438,540.9540000000002,538.557,0.0
52332.0,STARLINK-3831,PAYLOAD,2022-09-18 02:16:43,15.08827049,0.0001692,53.2171,144.0548,58.8411,301.2747,-8.4651e-05,-1.635e-05,0.0,0 STARLINK-3831,1 52332U 22045B   22261.09494891 -.00001635  00000-0 -84651-4 0  9990,2 52332  53.2171 144.0548 0001692  58.8411 301.2747 15.08827049 24124,6917.92,95.438,540.955,538.614,0.0
52332.0,STARLINK-3831,PAYLOAD,2022-09-18 19:45:57,15.08829931,0.0002014,53.2171,140.7806,44.1436,315.9716,1.1526e-05,-1.05e-06,0.0,0 STARLINK-3831,1 52332U 22045B   22261.82358769 -.00000105  00000-0  11526-4 0  9995,2 52332  53.2171 140.7806 0002014  44.1436 315.9716 15.08829931 24230,6917.911,95.438,541.169,538.383,0.0
52332.0,STARLINK-3831,PAYLOAD,2022-09-18 21:21:21,15.08831582,0.0001862,53.2162,140.49,47.3698,312.7451,3.4537e-05,2.61e-06,0.0,0 STARLINK-3831,1 52332U 22045B   22261.88982646  .00000261  00000-0  34537-4 0  9997,2 52332  53.2162 140.4900 0001862  47.3698 312.7451 15.08831582 24244,6917.906,95.438,541.059,538.4830000000002,0.0
52332.0,STARLINK-3831,PAYLOAD,2022-09-19 00:32:06,15.08836491,0.0001894,53.2175,139.8933,55.093,305.024,6.984e-05,8.23e-06,0.0,0 STARLINK-3831,1 52332U 22045B   22262.02230242  .00000823  00000-0  69840-4 0  9991,2 52332  53.2175 139.8933 0001894  55.0930 305.0240 15.08836491 24263,6917.891,95.438,541.066,538.446,0.0
52332.0,STARLINK-3831,PAYLOAD,2022-09-19 08:29:02,15.08840118,0.0001905,53.2173,138.4064,55.1076,305.0095,9.2155e-05,1.179e-05,0.0,0 STARLINK-3831,1 52332U 22045B   22262.35349959  .00001179  00000-0  92155-4 0  9993,2 52332  53.2173 138.4064 0001905  55.1076 305.0095 15.08840118 24311,6917.88,95.438,541.063,538.427,0.0
52332.0,STARLINK-3831,PAYLOAD,2022-09-20 00:22:54,15.08819671,0.0002091,53.2177,135.4332,61.4632,298.657,0.00023853,3.508e-05,0.0,0 STARLINK-3831,1 52332U 22045B   22263.01590742  .00003508  00000-0  23853-3 0  9991,2 52332  53.2177 135.4332 0002091  61.4632 298.6570 15.08819671 24411,6917.943,95.439,541.254,538.361,0.0
52332.0,STARLINK-3831,PAYLOAD,2022-09-20 08:19:50,15.08826352,0.0002145,53.2176,133.9455,55.6022,304.5173,1.0103e-05,-1.28e-06,0.0,0 STARLINK-3831,1 52332U 22045B   22263.34711351 -.00000128  00000-0  10103-4 0  9999,2 52332  53.2176 133.9455 0002145  55.6022 304.5173 15.08826352 24462,6917.922,95.438,541.271,538.303,0.0
52332.0,STARLINK-3831,PAYLOAD,2022-09-21 01:49:04,15.08843779,0.0002189999999999,53.2167,130.6724,51.6344,308.4845,-6.015499999999999e-06,-3.84e-06,0.0,0 STARLINK-3831,1 52332U 22045B   22264.07574466 -.00000384  00000-0 -60155-5 0  9992,2 52332  53.2167 130.6724 0002190  51.6344 308.4845 15.08843779 24571,6917.869000000002,95.437,541.249,538.219,0.0
52332.0,STARLINK-3831,PAYLOAD,2022-09-21 17:42:56,15.08835623,0.0002069,53.2152,127.7001,56.1526,303.9663,-2.4592e-05,-6.8e-06,0.0,0 STARLINK-3831,1 52332U 22045B   22264.73814971 -.00000680  00000-0 -24592-4 0  9996,2 52332  53.2152 127.7001 0002069  56.1526 303.9663 15.08835623 24675,6917.894,95.438,541.19,538.327,0.0
52332.0,STARLINK-3831,PAYLOAD,2022-09-22 19:09:06,15.08838035,0.0002103,53.2152,122.9428,55.0478,305.0711,2.1846e-05,5.9e-07,0.0,0 STARLINK-3831,1 52332U 22045B   22265.79798816  .00000059  00000-0  21846-4 0  9999,2 52332  53.2152 122.9428 0002103  55.0478 305.0711 15.08838035 24833,6917.886,95.438,541.206,538.297,0.0
52332.0,STARLINK-3831,PAYLOAD,2022-09-23 07:52:11,15.08832646,0.0001359,53.2168,120.561,62.0973,298.0156,-7.8932e-05,-1.544e-05,0.0,0 STARLINK-3831,1 52332U 22045B   22266.32791436 -.00001544  00000-0 -78932-4 0  9990,2 52332  53.2168 120.5610 0001359  62.0973 298.0156 15.08832646 24912,6917.903,95.438,540.7080000000002,538.828,0.0
52332.0,STARLINK-3831,PAYLOAD,2022-09-23 20:35:16,15.08839694,0.0001813,53.2166,118.1851,48.994,311.1209,-5.481900000000002e-06,-3.75e-06,0.0,0 STARLINK-3831,1 52332U 22045B   22266.85783061 -.00000375  00000-0 -54819-5 0  9993,2 52332  53.2166 118.1851 0001813  48.9940 311.1209 15.08839694 24996,6917.880999999999,95.438,541.001,538.492,0.0
52332.0,STARLINK-3831,PAYLOAD,2022-09-23 23:46:02,15.08842217,0.0001834,53.2167,117.5903,50.1198,309.9955,1.5797e-05,-3.7e-07,0.0,0 STARLINK-3831,1 52332U 22045B   22266.99030829 -.00000037  00000-0  15797-4 0  9990,2 52332  53.2167 117.5903 0001834  50.1198 309.9955 15.08842217 25013,6917.874,95.437,541.007,538.47,0.0
52332.0,STARLINK-3831,PAYLOAD,2022-09-24 20:26:03,15.088343300000002,0.0001821,53.2167,113.7245,49.6198,310.4953,4.4004e-05,4.12e-06,0.0,0 STARLINK-3831,1 52332U 22045B   22267.85142970  .00000412  00000-0  44004-4 0  9996,2 52332  53.2167 113.7245 0001821  49.6198 310.4953 15.08834330 25145,6917.898,95.438,541.0219999999998,538.503,0.0
52332.0,STARLINK-3831,PAYLOAD,2022-09-25 18:41:26,15.08843675,0.000166,53.2163,109.5604,57.2143,302.9009,3.1562e-05,2.14e-06,0.0,0 STARLINK-3831,1 52332U 22045B   22268.77878305  .00000214  00000-0  31562-4 0  9991,2 52332  53.2163 109.5604 0001660  57.2143 302.9009 15.08843675 25284,6917.869000000002,95.437,540.883,538.586,0.0
52332.0,STARLINK-3831,PAYLOAD,2022-09-25 23:27:36,15.08835615,0.0001776,53.216,108.6685,47.8801,312.2342,-3.185e-05,-7.95e-06,0.0,0 STARLINK-3831,1 52332U 22045B   22268.97751032 -.00000795  00000-0 -31850-4 0  9996,2 52332  53.2160 108.6685 0001776  47.8801 312.2342 15.08835615 25317,6917.894,95.438,540.987,538.53,0.0
52332.0,STARLINK-3831,PAYLOAD,2022-09-26 20:07:38,15.08836799,0.0001861,53.2163,104.7983,39.8567,320.2562,-0.0001416,-2.541e-05,0.0,0 STARLINK-3831,1 52332U 22045B   22269.83863518 -.00002541  00000-0 -14160-3 0  9990,2 52332  53.2163 104.7983 0001861  39.8567 320.2562 15.08836799 25444,6917.89,95.438,541.043,538.4680000000002,0.0
52332.0,STARLINK-3831,PAYLOAD,2022-09-26 23:18:24,15.08826426,0.0001738,53.216,104.2084,46.4589,313.6548,-8.1511e-05,-1.585e-05,0.0,0 STARLINK-3831,1 52332U 22045B   22269.97112035 -.00001585  00000-0 -81511-4 0  9998,2 52332  53.2160 104.2084 0001738  46.4589 313.6548 15.08826426 25467,6917.922,95.438,540.989,538.585,0.0
52332.0,STARLINK-3831,PAYLOAD,2022-09-28 11:52:16,15.08836557,0.0001781,53.2158,97.368,47.7614,312.3529,1.8961e-05,1.4e-07,0.0,0 STARLINK-3831,1 52332U 22045B   22271.49463810  .00000014  00000-0  18961-4 0  9991,2 52332  53.2158  97.3680 0001781  47.7614 312.3529 15.08836557 25695,6917.891,95.438,540.988,538.524,0.0
